IRIDIUM 136             
1 42962U 17061H   24119.93919806  .00000391  00000+0  13259-3 0  9995
2 42962  86.3997 350.9118 0002475  85.9195 274.2283 14.34218472343148
